1 40730U 15033A   21001.40455081 -.00000055  00000-0  00000-0 0  9998
2 40730  55.4933 348.0410 0060270 354.9007   5.0432  2.00552350 40020
1 40730U 15033A   21001.40455164 -.00000055  00000-0  00000-0 0  9990
2 40730  55.4932 348.0410 0060249 354.8982   5.0457  2.00552354 40027
1 40730U 15033A   21001.90316060 -.00000054  00000-0  00000+0 0  9994
2 40730  55.4931 348.0211 0060300 354.9243   5.0201  2.00552319 40055
1 40730U 15033A   21001.90316060 -.00000054  00000-0  00000-0 0  9995
2 40730  55.4931 348.0211 0060300 354.9243   5.0201  2.00552319 40033
1 40730U 15033A   21002.40177067 -.00000053  00000-0  00000-0 0  9992
2 40730  55.4929 348.0011 0060321 354.9428   5.0021  2.00552292 40047
1 40730U 15033A   21002.90038138 -.00000052  00000-0  00000-0 0  9991
2 40730  55.4927 347.9811 0060348 354.9640   4.9816  2.00552253 40054
1 40730U 15033A   21003.39899210 -.00000051  00000-0  00000-0 0  9990
2 40730  55.4925 347.9612 0060381 354.9901   4.9563  2.00552216 40067
1 40730U 15033A   21004.39621465 -.00000052  00000-0  00000-0 0  9997
2 40730  55.4921 347.9213 0060421 355.0293   4.9185  2.00552135 40083
1 40730U 15033A   21005.39343621 -.00000054  00000-0  00000-0 0  9995
2 40730  55.4917 347.8813 0060477 355.0739   4.8748  2.00552063 40106
1 40730U 15033A   21005.39343677 -.00000054  00000-0  00000-0 0  9996
2 40730  55.4917 347.8813 0060489 355.0758   4.8729  2.00552024 40106
1 40730U 15033A   21006.39065623 -.00000059  00000-0  00000-0 0  9994
2 40730  55.4913 347.8414 0060537 355.1172   4.8314  2.00552003 40123
1 40730U 15033A   21007.38787653 -.00000065  00000-0  00000-0 0  9995
2 40730  55.4909 347.8015 0060601 355.1647   4.7826  2.00551887 40142
1 40730U 15033A   21007.38787710 -.00000065  00000-0  00000-0 0  9999
2 40730  55.4909 347.8015 0060595 355.1607   4.7866  2.00551875 40141
1 40730U 15033A   21008.38509400 -.00000071  00000-0  00000-0 0  9995
2 40730  55.4905 347.7615 0060653 355.2056   4.7393  2.00551843 40168
1 40730U 15033A   21008.38509527 -.00000071  00000-0  00000-0 0  9995
2 40730  55.4905 347.7615 0060640 355.2004   4.7445  2.00551817 40166
1 40730U 15033A   21009.38231089 -.00000078  00000-0  00000-0 0  9998
2 40730  55.4901 347.7216 0060711 355.2518   4.6900  2.00551805 40182
1 40730U 15033A   21009.38231226 -.00000078  00000-0  00000-0 0  9991
2 40730  55.4901 347.7216 0060691 355.2380   4.7037  2.00551765 40183
1 40730U 15033A   21010.37952798 -.00000084  00000-0  00000-0 0  9993
2 40730  55.4897 347.6816 0060762 355.2926   4.6459  2.00551768 40200
1 40730U 15033A   21010.37952903 -.00000084  00000-0  00000-0 0  9991
2 40730  55.4897 347.6816 0060747 355.2897   4.6489  2.00551751 40205
1 40730U 15033A   21011.37674610 -.00000089  00000-0  00000-0 0  9993
2 40730  55.4893 347.6417 0060814 355.3357   4.6001  2.00551732 40226
1 40730U 15033A   21011.37674622 -.00000089  00000-0  00000-0 0  9996
2 40730  55.4893 347.6417 0060810 355.3330   4.6028  2.00551731 40221
1 40730U 15033A   21012.37396415 -.00000092  00000-0  00000-0 0  9992
2 40730  55.4889 347.6017 0060863 355.3811   4.5530  2.00551770 40246
1 40730U 15033A   21012.37396460 -.00000092  00000-0  00000-0 0  9992
2 40730  55.4888 347.6017 0060866 355.3825   4.5516  2.00551753 40248
1 40730U 15033A   21013.37118752 -.00000093  00000-0  00000-0 0  9990
2 40730  55.4885 347.5618 0060901 355.4208   4.5128  2.00551697 40265
1 40730U 15033A   21013.37118861 -.00000093  00000-0  00000-0 0  9991
2 40730  55.4885 347.5618 0060916 355.4274   4.5063  2.00551653 40264
1 40730U 15033A   21014.36841299 -.00000093  00000-0  00000-0 0  9999
2 40730  55.4881 347.5219 0060973 355.4765   4.4581  2.00551612 40286
1 40730U 15033A   21014.36841330 -.00000093  00000-0  00000-0 0  9995
2 40730  55.4881 347.5219 0060965 355.4752   4.4594  2.00551610 40285
1 40730U 15033A   21015.36563832 -.00000092  00000-0  00000-0 0  9993
2 40730  55.4877 347.4820 0061022 355.5181   4.4183  2.00551595 40308
1 40730U 15033A   21015.36563879 -.00000092  00000-0  00000-0 0  9994
2 40730  55.4877 347.4820 0061014 355.5174   4.4191  2.00551586 40300
1 40730U 15033A   21016.36286456 -.00000090  00000-0  00000-0 0  9996
2 40730  55.4873 347.4421 0061072 355.5621   4.3768  2.00551585 40324
1 40730U 15033A   21016.36286610 -.00000090  00000-0  00000-0 0  9998
2 40730  55.4873 347.4421 0061068 355.5657   4.3733  2.00551542 40323
1 40730U 15033A   21017.36009170 -.00000089  00000-0  00000-0 0  9991
2 40730  55.4869 347.4021 0061123 355.6045   4.3371  2.00551557 40344
1 40730U 15033A   21017.36009213 -.00000089  00000-0  00000-0 0  9999
2 40730  55.4869 347.4021 0061114 355.6042   4.3374  2.00551549 40345
1 40730U 15033A   21018.35731916 -.00000088  00000-0  00000-0 0  9990
2 40730  55.4865 347.3622 0061157 355.6437   4.3003  2.00551522 40364
1 40730U 15033A   21018.35732057 -.00000088  00000-0  00000-0 0  9997
2 40730  55.4865 347.3622 0061171 355.6480   4.2961  2.00551466 40367
1 40730U 15033A   21019.35454638 -.00000087  00000-0  00000-0 0  9993
2 40730  55.4861 347.3223 0061208 355.6890   4.2571  2.00551467 40386
1 40730U 15033A   21019.35454676 -.00000087  00000-0  00000-0 0  9995
2 40730  55.4861 347.3223 0061219 355.6896   4.2565  2.00551444 40382
1 40730U 15033A   21020.35177184 -.00000087  00000-0  00000-0 0  9993
2 40730  55.4856 347.2824 0061266 355.7329   4.2146  2.00551431 40400
1 40730U 15033A   21020.35177267 -.00000087  00000-0  00000-0 0  9995
2 40730  55.4856 347.2824 0061255 355.7329   4.2146  2.00551414 40409
1 40730U 15033A   21020.85038491 -.00000086  00000-0  00000-0 0  9994
2 40730  55.4854 347.2625 0061288 355.7548   4.1931  2.00551396 40416
1 40730U 15033A   21021.34899731 -.00000086  00000-0  00000-0 0  9991
2 40730  55.4852 347.2425 0061312 355.7763   4.1718  2.00551373 40428
1 40730U 15033A   21022.34622288 -.00000085  00000-0  00000-0 0  9992
2 40730  55.4848 347.2026 0061354 355.8224   4.1258  2.00551289 40446
1 40730U 15033A   21022.34622295 -.00000085  00000-0  00000-0 0  9990
2 40730  55.4848 347.2026 0061360 355.8264   4.1218  2.00551285 40449
1 40730U 15033A   21023.34344671 -.00000083  00000-0  00000-0 0  9998
2 40730  55.4844 347.1627 0061411 355.8838   4.0642  2.00551255 40464
1 40730U 15033A   21023.34344768 -.00000083  00000-0  00000-0 0  9995
2 40730  55.4844 347.1627 0061423 355.8986   4.0496  2.00551217 40466
1 40730U 15033A   21024.34067378 -.00000080  00000-0  00000-0 0  9992
2 40730  55.4840 347.1228 0061452 355.9325   4.0150  2.00551101 40480
1 40730U 15033A   21024.83928421 -.00000079  00000-0  00000-0 0  9999
2 40730  55.4838 347.1029 0061465 355.9534   3.9938  2.00551144 40492
1 40730U 15033A   21025.33789551 -.00000077  00000-0  00000-0 0  9992
2 40730  55.4836 347.0829 0061492 355.9763   3.9706  2.00551135 40506
1 40730U 15033A   21025.33789648 -.00000077  00000-0  00000-0 0  9999
2 40730  55.4836 347.0829 0061507 355.9819   3.9652  2.00551091 40506
1 40730U 15033A   21025.83650894 -.00000075  00000-0  00000+0 0  9991
2 40730  55.4834 347.0630 0061523 356.0038   3.9431  2.00551068 40539
1 40730U 15033A   21026.33512192 -.00000073  00000-0  00000-0 0  9994
2 40730  55.4831 347.0430 0061549 356.0314   3.9155  2.00551028 40527
1 40730U 15033A   21026.33512235 -.00000073  00000-0  00000-0 0  9992
2 40730  55.4831 347.0430 0061554 356.0341   3.9129  2.00551009 40523
1 40730U 15033A   21027.33235113 -.00000069  00000-0  00000-0 0  9995
2 40730  55.4827 347.0031 0061595 356.0803   3.8672  2.00550865 40546
1 40730U 15033A   21028.32957820 -.00000066  00000-0  00000-0 0  9998
2 40730  55.4823 346.9632 0061651 356.1408   3.8080  2.00550829 40567
1 40730U 15033A   21028.32957845 -.00000066  00000-0  00000-0 0  9995
2 40730  55.4823 346.9632 0061637 356.1367   3.8120  2.00550836 40568
1 40730U 15033A   21029.32680764 -.00000063  00000-0  00000-0 0  9996
2 40730  55.4819 346.9233 0061684 356.1872   3.7635  2.00550769 40580
1 40730U 15033A   21029.32680894 -.00000063  00000-0  00000-0 0  9990
2 40730  55.4819 346.9234 0061700 356.1982   3.7526  2.00550713 40580
1 40730U 15033A   21030.32403863 -.00000061  00000-0  00000-0 0  9999
2 40730  55.4814 346.8834 0061738 356.2460   3.7074  2.00550677 40603
1 40730U 15033A   21031.32127190 -.00000060  00000-0  00000-0 0  9995
2 40730  55.4810 346.8435 0061790 356.3091   3.6471  2.00550527 40621
1 40730U 15033A   21031.81988651 -.00000061  00000-0  00000-0 0  9997
2 40730  55.4807 346.8236 0061809 356.3309   3.6265  2.00550525 40639
1 40730U 15033A   21033.31573477 -.00000065  00000-0  00000-0 0  9994
2 40730  55.4801 346.7637 0061876 356.4099   3.5501  2.00550338 40665
1 40730U 15033A   21034.31295920 -.00000070  00000-0  00000-0 0  9995
2 40730  55.4796 346.7237 0061908 356.4551   3.5052  2.00550442 40682
1 40730U 15033A   21035.31018976 -.00000077  00000-0  00000-0 0  9997
2 40730  55.4792 346.6838 0061957 356.5068   3.4526  2.00550273 40702
1 40730U 15033A   21036.30734670 -.00000083  00000-0  00000+0 0  9999
2 40730  55.4787 346.6438 0061607 355.8121   4.1367  2.00578158 40743
1 40730U 15033A   21036.30734670 -.00000083  00000-0  00000-0 0  9990
2 40730  55.4787 346.6438 0061607 355.8121   4.1367  2.00578158 40721
1 40730U 15033A   21037.30443305 -.00000090  00000-0  00000-0 0  9991
2 40730  55.4782 346.6038 0061648 355.8437   4.1027  2.00578154 40748
1 40730U 15033A   21038.30152101 -.00000095  00000-0  00000-0 0  9998
2 40730  55.4778 346.5639 0061686 355.8915   4.0529  2.00578155 40761
1 40730U 15033A   21038.30152105 -.00000095  00000-0  00000-0 0  9992
2 40730  55.4777 346.5639 0061695 355.8965   4.0480  2.00578140 40765
1 40730U 15033A   21039.29860900 -.00000098  00000-0  00000-0 0  9993
2 40730  55.4773 346.5239 0061719 355.9396   4.0038  2.00578139 40782
1 40730U 15033A   21039.29860924 -.00000098  00000-0  00000-0 0  9999
2 40730  55.4773 346.5240 0061725 355.9437   3.9997  2.00578126 40785
